{
  "norad_id": 59334,
  "name": "STARLINK-31573",
  "history": [
    {
      "epoch": "2026-03-28T10:52:53.322816",
      "apogee_km": 483.63598815075784,
      "perigee_km": 482.4270502576737,
      "latitude_deg": -34.52394569771047,
      "longitude_deg": 156.92591423983686,
      "semi_major_axis_km": 6861.168519204216,
      "eccentricity": 8.81e-05,
      "inclination_deg": 43.0021,
      "raan_deg": 80.6765,
      "arg_perigee_deg": 262.4164,
      "mean_anomaly_deg": 97.6588,
      "mean_motion_rev_day": 15.2758587
    }
  ]
}