{"fetched_at":"2026-03-29T02:12:04Z","count":15717,"tles":[{"name":"STARLINK-31573","line1":"1 59334U 24057Q   26087.45339494 -.00000955  00000+0 -25187-4 0  9993","line2":"2 59334  43.0021  80.6765 0000881 262.4164  97.6588 15.27585870112713","category":"Starlink"}]}